NORAD_CAT_ID,OBJECT_NAME,OBJECT_TYPE,EPOCH,MEAN_MOTION,ECCENTRICITY,INCLINATION,RA_OF_ASC_NODE,ARG_OF_PERICENTER,MEAN_ANOMALY,BSTAR,MEAN_MOTION_DOT,MEAN_MOTION_DDOT,TLE_LINE0,TLE_LINE1,TLE_LINE2,SEMIMAJOR_AXIS,PERIOD,APOGEE,PERIGEE,DECAYED
53732.0,STARLINK-4661,PAYLOAD,2024-01-21 16:59:36,15.08848881,0.000131,53.2166,146.6949,103.2172,256.8967,5.4578e-05,5.81e-06,0.0,0 STARLINK-4661,1 53732U 22107AJ  24021.70806299  .00000581  00000-0  54578-4 0  9999,2 53732  53.2166 146.6949 0001310 103.2172 256.8967 15.08848881 77104,6917.853,95.437,540.624,538.812,0.0
53732.0,STARLINK-4661,PAYLOAD,2024-01-22 07:18:06,15.08713941,0.0002058,53.2185,144.0249,73.7147,286.4072,0.0015362,0.00024161,0.0,0 STARLINK-4661,1 53732U 22107AJ  24022.30423898  .00024161  00000-0  15362-2 0  9992,2 53732  53.2185 144.0249 0002058  73.7147 286.4072 15.08713941 77196,6918.266,95.446,541.555,538.707,0.0
53732.0,STARLINK-4661,PAYLOAD,2024-01-22 12:04:15,15.08836479,0.0001177,53.2157,143.131,91.5156,268.5971,9.6448e-06,-1.34e-06,0.0,0 STARLINK-4661,1 53732U 22107AJ  24022.50295501 -.00000134  00000-0  96448-5 0  9994,2 53732  53.2157 143.1310 0001177  91.5156 268.5971 15.08836479 76621,6917.891,95.438,540.57,538.942,0.0
53732.0,STARLINK-4661,PAYLOAD,2024-01-22 15:15:01,15.08841651,0.0001279,53.2163,142.5358,72.9488,287.1644,4.9578e-05,5.01e-06,0.0,0 STARLINK-4661,1 53732U 22107AJ  24022.63543158  .00000501  00000-0  49578-4 0  9990,2 53732  53.2163 142.5358 0001279  72.9488 287.1644 15.08841651 77248,6917.875,95.437,540.625,538.856,0.0
53732.0,STARLINK-4661,PAYLOAD,2024-01-23 15:05:48,15.08845207,0.0001948,53.2184,138.0749,51.0857,309.0309,0.00012162,1.648e-05,0.0,0 STARLINK-4661,1 53732U 22107AJ  24023.62902934  .00001648  00000-0  12162-3 0  9992,2 53732  53.2184 138.0749 0001948  51.0857 309.0309 15.08845207 77395,6917.864,95.437,541.077,538.382,0.0
53732.0,STARLINK-4661,PAYLOAD,2024-01-24 11:45:49,15.08836758,0.0001938,53.2175,134.208,59.8706,300.2478,-2.0186e-05,-6.09e-06,0.0,0 STARLINK-4661,1 53732U 22107AJ  24024.49016112 -.00000609  00000-0 -20186-4 0  9996,2 53732  53.2175 134.2080 0001938  59.8706 300.2478 15.08836758 76928,6917.89,95.438,541.096,538.415,0.0
53732.0,STARLINK-4661,PAYLOAD,2024-01-24 13:21:12,15.08837226,0.0001677,53.2174,133.9115,68.8167,291.3005,-7.1402e-06,-4.02e-06,0.0,0 STARLINK-4661,1 53732U 22107AJ  24024.55639994 -.00000402  00000-0 -71402-5 0  9991,2 53732  53.2174 133.9115 0001677  68.8167 291.3005 15.08837226 77538,6917.889,95.438,540.914,538.594,0.0
53732.0,STARLINK-4661,PAYLOAD,2024-01-24 14:56:36,15.08839215,0.0001883,53.2175,133.6147,59.3241,300.7936,1.8171e-05,1e-08,0.0,0 STARLINK-4661,1 53732U 22107AJ  24024.62263906  .00000001  00000-0  18171-4 0  9991,2 53732  53.2175 133.6147 0001883  59.3241 300.7936 15.08839215 77547,6917.883,95.438,541.05,538.445,0.0
53732.0,STARLINK-4661,PAYLOAD,2024-01-25 13:11:59,15.08843569,0.0002089,53.2179,129.4515,61.8168,298.3035,-3.2409e-05,-8.04e-06,0.0,0 STARLINK-4661,1 53732U 22107AJ  24025.54999989 -.00000804  00000-0 -32409-4 0  9993,2 53732  53.2179 129.4515 0002089  61.8168 298.3035 15.08843569 77682,6917.869,95.437,541.18,538.289,0.0
53732.0,STARLINK-4661,PAYLOAD,2024-01-26 13:02:46,15.08846037,0.0001649,53.2163,124.9976,78.8148,281.3029,0.00012739,1.74e-05,0.0,0 STARLINK-4661,1 53732U 22107AJ  24026.54359172  .00001740  00000-0  12739-3 0  9999,2 53732  53.2163 124.9976 0001649  78.8148 281.3029 15.08846037 77838,6917.862,95.437,540.868,538.586,0.0
53732.0,STARLINK-4661,PAYLOAD,2024-01-26 16:13:32,15.08843257,0.0001425,53.2167,124.3895,88.4872,271.6283,0.00019591,2.832e-05,0.0,0 STARLINK-4661,1 53732U 22107AJ  24026.67606886  .00002832  00000-0  19591-3 0  9996,2 53732  53.2167 124.3895 0001425  88.4872 271.6283 15.08843257 77250,6917.87,95.437,540.721,538.75,0.0
53732.0,STARLINK-4661,PAYLOAD,2024-01-27 11:18:10,15.08839468,0.0001569,53.2173,120.8152,100.625,259.4919,1.0316e-06,-2.72e-06,0.0,0 STARLINK-4661,1 53732U 22107AJ  24027.47095798 -.00000272  00000-0  10316-5 0  9994,2 53732  53.2173 120.8152 0001569 100.6250 259.4919 15.08839468 77372,6917.882,95.438,540.832,538.662,0.0
53732.0,STARLINK-4661,PAYLOAD,2024-01-27 12:53:33,15.08838655,0.0001441,53.2169,120.5178,94.4838,265.6319,-7.3634e-06,-4.05e-06,0.0,0 STARLINK-4661,1 53732U 22107AJ  24027.53719885 -.00000405  00000-0 -73634-5 0  9992,2 53732  53.2169 120.5178 0001441  94.4838 265.6319 15.08838655 77980,6917.885,95.438,540.746,538.753,0.0
53732.0,STARLINK-4661,PAYLOAD,2024-01-27 16:04:20,15.08837226,0.0001596,53.2179,119.9329,99.3272,260.79,-1.409e-05,-5.12e-06,0.0,0 STARLINK-4661,1 53732U 22107AJ  24027.66968100 -.00000512  00000-0 -14090-4 0  9991,2 53732  53.2179 119.9329 0001596  99.3272 260.7900 15.08837226 78007,6917.889,95.438,540.858,538.65,0.0
53732.0,STARLINK-4661,PAYLOAD,2024-01-28 12:44:20,15.08844665,0.0001497,53.2174,116.0674,100.4431,259.6729,-2.927e-05,-7.54e-06,0.0,0 STARLINK-4661,1 53732U 22107AJ  24028.53079784 -.00000754  00000-0 -29270-4 0  9993,2 53732  53.2174 116.0674 0001497 100.4431 259.6729 15.08844665 78139,6917.866,95.437,540.767,538.696,0.0
53732.0,STARLINK-4661,PAYLOAD,2024-01-29 10:59:44,15.0884011,0.0001565,53.2172,111.9068,98.0747,262.0423,0.00012109,1.64e-05,0.0,0 STARLINK-4661,1 53732U 22107AJ  24029.45815847  .00001640  00000-0  12109-3 0  9998,2 53732  53.2172 111.9068 0001565  98.0747 262.0423 15.08840110 78271,6917.88,95.438,540.828,538.662,0.0
53732.0,STARLINK-4661,PAYLOAD,2024-01-30 10:50:32,15.08836328,0.0001557,53.2175,107.4499,101.6978,258.4189,2.8189e-05,1.61e-06,0.0,0 STARLINK-4661,1 53732U 22107AJ  24030.45176613  .00000161  00000-0  28189-4 0  9994,2 53732  53.2175 107.4499 0001557 101.6978 258.4189 15.08836328 77824,6917.892,95.438,540.834,538.679,0.0
53732.0,STARLINK-4661,PAYLOAD,2024-01-30 12:25:55,15.08835844,0.0001491,53.217,107.1529,87.9127,272.2036,3.7633e-05,3.11e-06,0.0,0 STARLINK-4661,1 53732U 22107AJ  24030.51800699  .00000311  00000-0  37633-4 0  9990,2 53732  53.2170 107.1529 0001491  87.9127 272.2036 15.08835844 78434,6917.893,95.438,540.79,538.727,0.0
53732.0,STARLINK-4661,PAYLOAD,2024-01-31 12:16:42,15.08848861,0.0001813,53.2175,102.6898,71.2755,288.8434,5.3776e-05,5.68e-06,0.0,0 STARLINK-4661,1 53732U 22107AJ  24031.51159962  .00000568  00000-0  53776-4 0  9991,2 53732  53.2175 102.6898 0001813  71.2755 288.8434 15.08848861 77986,6917.853,95.437,540.973,538.464,0.0
53732.0,STARLINK-4661,PAYLOAD,2024-01-31 13:52:04,15.08854065,0.0001445,53.2168,102.3886,82.9282,277.1874,6.0515e-05,6.76e-06,0.0,0 STARLINK-4661,1 53732U 22107AJ  24031.57783407  .00000676  00000-0  60515-4 0  9993,2 53732  53.2168 102.3886 0001445  82.9282 277.1874 15.08854065 78597,6917.837,95.437,540.702,538.703,0.0
53732.0,STARLINK-4661,PAYLOAD,2024-02-01 12:07:29,15.08838301,0.0001569,53.2191,98.2178,78.5997,281.5171,6.0062e-05,6.68e-06,0.0,0 STARLINK-4661,1 53732U 22107AJ  24032.50520507  .00000668  00000-0  60062-4 0  9995,2 53732  53.2191  98.2178 0001569  78.5997 281.5171 15.08838301 78135,6917.886,95.438,540.836,538.665,0.0
53732.0,STARLINK-4661,PAYLOAD,2024-02-01 13:42:52,15.08839543,0.0001558,53.2185,97.9239,96.3132,263.8038,4.5681e-05,4.39e-06,0.0,0 STARLINK-4661,1 53732U 22107AJ  24032.57144492  .00000439  00000-0  45681-4 0  9993,2 53732  53.2185  97.9239 0001558  96.3132 263.8038 15.08839543 78740,6917.882,95.438,540.825,538.669,0.0
53732.0,STARLINK-4661,PAYLOAD,2024-02-02 10:22:53,15.08849486,0.0001627,53.2183,94.0587,91.0269,269.0909,-1.4908e-05,-5.25e-06,0.0,0 STARLINK-4661,1 53732U 22107AJ  24033.43255967 -.00000525  00000-0 -14908-4 0  9995,2 53732  53.2183  94.0587 0001627  91.0269 269.0909 15.08849486 78272,6917.851,95.437,540.842,538.591,0.0
53732.0,STARLINK-4661,PAYLOAD,2024-02-03 03:52:08,15.08840395,0.0001934,53.2177,90.7928,65.1406,294.9787,2.2548e-05,7.1e-07,0.0,0 STARLINK-4661,1 53732U 22107AJ  24034.16120589  .00000071  00000-0  22548-4 0  9990,2 53732  53.2177  90.7928 0001934  65.1406 294.9787 15.08840395 78386,6917.879,95.438,541.082,538.406,0.0
53732.0,STARLINK-4661,PAYLOAD,2024-02-03 13:24:27,15.08838557,0.0001603,53.2167,89.0077,79.2593,280.858,1.0637e-05,-1.19e-06,0.0,0 STARLINK-4661,1 53732U 22107AJ  24034.55864627 -.00000119  00000-0  10637-4 0  9991,2 53732  53.2167  89.0077 0001603  79.2593 280.8580 15.08838557 79043,6917.885,95.438,540.859,538.641,0.0
53732.0,STARLINK-4661,PAYLOAD,2024-02-04 08:29:04,15.08843717,0.0001652,53.2163,85.4407,86.2732,273.8449,6.861e-05,8.04e-06,0.0,0 STARLINK-4661,1 53732U 22107AJ  24035.35352137  .00000804  00000-0  68610-4 0  9992,2 53732  53.2163  85.4407 0001652  86.2732 273.8449 15.08843717 78569,6917.869,95.437,540.877,538.591,0.0
53732.0,STARLINK-4661,PAYLOAD,2024-02-05 09:55:14,15.08838017,0.0001679,53.2166,80.684,86.7034,273.4151,7.741e-05,9.44e-06,0.0,0 STARLINK-4661,1 53732U 22107AJ  24036.41336571  .00000944  00000-0  77410-4 0  9997,2 53732  53.2166  80.6840 0001679  86.7034 273.4151 15.08838017 78720,6917.886,95.438,540.913,538.59,0.0
53732.0,STARLINK-4661,PAYLOAD,2024-02-06 03:24:30,15.08833963,0.0001859,53.2181,77.4167,98.2843,261.836,-3.7135e-05,-8.79e-06,0.0,0 STARLINK-4661,1 53732U 22107AJ  24037.14201450 -.00000879  00000-0 -37135-4 0  9994,2 53732  53.2181  77.4167 0001859  98.2843 261.8360 15.08833963 78839,6917.899,95.438,541.05,538.478,0.0
53732.0,STARLINK-4661,PAYLOAD,2024-02-06 08:10:39,15.088343,0.0001927,53.2182,76.5261,104.5757,255.5449,8.8047e-06,-1.48e-06,0.0,0 STARLINK-4661,1 53732U 22107AJ  24037.34073300 -.00000148  00000-0  88047-5 0  9994,2 53732  53.2182  76.5261 0001927 104.5757 255.5449 15.08834300 79460,6917.898,95.438,541.096,538.43,0.0
53732.0,STARLINK-4661,PAYLOAD,2024-02-07 11:12:12,15.0884191,0.0001802,53.2176,71.4706,103.8503,256.269,0.00011182,1.492e-05,0.0,0 STARLINK-4661,1 53732U 22107AJ  24038.46680797  .00001492  00000-0  11182-3 0  9998,2 53732  53.2176  71.4706 0001802 103.8503 256.2690 15.08841910 79038,6917.875,95.437,540.986,538.493,0.0
